NORAD_CAT_ID,OBJECT_NAME,OBJECT_TYPE,EPOCH,MEAN_MOTION,ECCENTRICITY,INCLINATION,RA_OF_ASC_NODE,ARG_OF_PERICENTER,MEAN_ANOMALY,BSTAR,MEAN_MOTION_DOT,MEAN_MOTION_DDOT,TLE_LINE0,TLE_LINE1,TLE_LINE2,SEMIMAJOR_AXIS,PERIOD,APOGEE,PERIGEE,DECAYED
51127.0,STARLINK-3370,PAYLOAD,2022-05-27 22:03:37,15.08837284,0.0001476,53.2212,22.1148,66.283,293.8317,3.085e-05,2.03e-06,0.0,0 STARLINK-3370,1 51127U 22005Z   22147.91918278  .00000203  00000-0  30850-4 0  9991,2 51127  53.2212  22.1148 0001476  66.2830 293.8317 15.08837284 20139,6917.889,95.438,540.775,538.7330000000002,0.0
51127.0,STARLINK-3370,PAYLOAD,2022-05-28 06:00:02,15.08872572,0.0001554,53.2194,20.6337,51.4323,306.7101,-0.003407,-0.00054151,0.0,0 STARLINK-3370,1 51127U 22005Z   22148.25002315 -.00054151  00000-0 -34070-2 0  9994,2 51127  53.2194  20.6337 0001554  51.4323 306.7101 15.08872572 21305,6917.781,95.435,540.721,538.571,0.0
51127.0,STARLINK-3370,PAYLOAD,2022-05-28 14:00:01,15.08826392,0.0001443,53.2197,19.136,59.1437,310.5542,0.0035244,0.00056229,0.0,0 STARLINK-3370,1 51127U 22005Z   22148.58334491  .00056229  00000-0  35244-2 0  9993,2 51127  53.2197  19.1360 0001443  59.1437 310.5542 15.08826392  1304,6917.922,95.438,540.785,538.789,0.0
51127.0,STARLINK-3370,PAYLOAD,2022-05-28 20:19:00,15.08842405,0.0001633,53.2213,17.9543,62.6823,297.4335,7.5308e-05,9.11e-06,0.0,0 STARLINK-3370,1 51127U 22005Z   22148.84653643  .00000911  00000-0  75308-4 0  9999,2 51127  53.2213  17.9543 0001633  62.6823 297.4335 15.08842405 21398,6917.873000000001,95.437,540.868,538.6080000000002,0.0
51127.0,STARLINK-3370,PAYLOAD,2022-05-29 06:00:02,15.08862377,0.0001719,53.2196,16.1447,55.2887,337.6502,-0.0040322,-0.00063931,0.0,0 STARLINK-3370,1 51127U 22005Z   22149.25002315 -.00063931  00000-0 -40322-2 0  9998,2 51127  53.2196  16.1447 0001719  55.2887 337.6502 15.08862377 21455,6917.812,95.436,540.866,538.488,0.0
51127.0,STARLINK-3370,PAYLOAD,2022-05-29 14:00:01,15.08814396,0.0001655,53.2199,14.6472,63.5801,340.8811,0.00096232,0.0001505,0.0,0 STARLINK-3370,1 51127U 22005Z   22149.58334491  .00015050  00000-0  96232-3 0  9996,2 51127  53.2199  14.6472 0001655  63.5801 340.8811 15.08814396  1305,6917.959,95.439,540.969,538.679,0.0
51127.0,STARLINK-3370,PAYLOAD,2022-05-29 21:45:12,15.08828838,0.0001684,53.2215,13.1976,61.9518,298.1645,-3.0919e-05,-7.8e-06,0.0,0 STARLINK-3370,1 51127U 22005Z   22149.90639313 -.00000780  00000-0 -30919-4 0  9990,2 51127  53.2215  13.1976 0001684  61.9518 298.1645 15.08828838 20437,6917.915,95.438,540.944,538.615,0.0
51127.0,STARLINK-3370,PAYLOAD,2022-05-29 22:00:00,15.08810921,0.0001737,53.2198,13.1528,56.8718,359.1659,-0.00070131,-0.00011423,0.0,0 STARLINK-3370,1 51127U 22005Z   22149.91667824 -.00011423  00000-0 -70131-3 0  9994,2 51127  53.2198  13.1528 0001737  56.8718 359.1659 15.08810921 21555,6917.969,95.439,541.036,538.633,0.0
51127.0,STARLINK-3370,PAYLOAD,2022-05-30 14:00:01,15.08809065,0.000159,53.2198,10.1586,64.0823,15.0739,0.0022967,0.00036422,0.0,0 STARLINK-3370,1 51127U 22005Z   22150.58334491  .00036422  00000-0  22967-2 0  9997,2 51127  53.2198  10.1586 0001590  64.0823  15.0739 15.08809065 21667,6917.975,95.44,540.94,538.74,0.0
51127.0,STARLINK-3370,PAYLOAD,2022-05-30 21:36:00,15.08823458,0.0001525,53.2198,8.7366,54.6778,305.4356,-0.00010626,-1.978e-05,0.0,0 STARLINK-3370,1 51127U 22005Z   22150.90000701 -.00001978  00000-0 -10626-3 0  9997,2 51127  53.2198   8.7366 0001525  54.6778 305.4356 15.08823458 20581,6917.931,95.439,540.851,538.741,0.0
51127.0,STARLINK-3370,PAYLOAD,2022-05-31 06:00:02,15.0884794,0.0001644,53.2193,7.1669,58.815,43.5518,-0.001558,-0.00025003,0.0,0 STARLINK-3370,1 51127U 22005Z   22151.25002315 -.00025003  00000-0 -15580-2 0  9997,2 51127  53.2193   7.1669 0001644  58.8150  43.5518 15.08847940 21760,6917.856,95.437,540.8580000000002,538.5840000000002,0.0
51127.0,STARLINK-3370,PAYLOAD,2022-05-31 21:26:47,15.08828668,0.0001656,53.2196,4.2765,56.044,304.071,0.00013118,1.8e-05,0.0,0 STARLINK-3370,1 51127U 22005Z   22151.89360429  .00001800  00000-0  13118-3 0  9993,2 51127  53.2196   4.2765 0001656  56.0440 304.0710 15.08828668 20734,6917.915,95.438,540.9259999999998,538.634,0.0
51127.0,STARLINK-3370,PAYLOAD,2022-05-31 22:00:00,15.08843415,0.0001706,53.2192,4.1752,59.6148,65.8837,0.00042007,6.404e-05,0.0,0 STARLINK-3370,1 51127U 22005Z   22151.91667824  .00006404  00000-0  42007-3 0  9999,2 51127  53.2192   4.1752 0001706  59.6148  65.8837 15.08843415 21869,6917.87,95.437,540.915,538.555,0.0
51127.0,STARLINK-3370,PAYLOAD,2022-06-01 20:00:01,15.08869905,0.0001625,53.2187,0.0601,60.9146,6.5143,-0.0033778,-0.00053689,0.0,0 STARLINK-3370,1 51127U 22005Z   22152.83334491 -.00053689  00000-0 -33778-2 0  9995,2 51127  53.2187   0.0601 0001625  60.9146   6.5143 15.08869905  1305,6917.7890000000025,95.436,540.778,538.53,0.0
51127.0,STARLINK-3370,PAYLOAD,2022-06-02 19:32:57,15.08843431,0.0001511,53.2199,355.6538,60.8048,299.3095,4.230600000000001e-05,3.85e-06,0.0,0 STARLINK-3370,1 51127U 22005Z   22153.81455829  .00000385  00000-0  42306-4 0  9995,2 51127  53.2199 355.6538 0001511  60.8048 299.3095 15.08843431 22149,6917.87,95.437,540.78,538.69,0.0
51127.0,STARLINK-3370,PAYLOAD,2022-06-03 06:40:39,15.08853098,0.0001705,53.2205,353.5726,62.4018,297.7148,4.8202e-05,4.79e-06,0.0,0 STARLINK-3370,1 51127U 22005Z   22154.27822923  .00000479  00000-0  48202-4 0  9994,2 51127  53.2205 353.5726 0001705  62.4018 297.7148 15.08853098 22212,6917.84,95.437,540.885,538.526,0.0
51127.0,STARLINK-3370,PAYLOAD,2022-06-04 00:09:53,15.0884245,0.0001786999999999,53.2207,350.3018,64.2562,295.8615,5.2226e-06,-2.05e-06,0.0,0 STARLINK-3370,1 51127U 22005Z   22155.00687183 -.00000205  00000-0  52226-5 0  9993,2 51127  53.2207 350.3018 0001787  64.2562 295.8615 15.08842450 22327,6917.873000000001,95.437,540.974,538.502,0.0
51127.0,STARLINK-3370,PAYLOAD,2022-06-04 12:52:58,15.08846724,0.0001914,53.2204,347.9235,65.1214,294.9977,-1.0517e-05,-4.56e-06,0.0,0 STARLINK-3370,1 51127U 22005Z   22155.53678820 -.00000456  00000-0 -10517-4 0  9994,2 51127  53.2204 347.9235 0001914  65.1214 294.9977 15.08846724 21286,6917.86,95.437,541.049,538.401,0.0
51127.0,STARLINK-3370,PAYLOAD,2022-06-05 22:00:00,15.08828815,0.0001809,53.2198,341.7303,59.1064,240.3954,0.0025737,0.00040898,0.0,0 STARLINK-3370,1 51127U 22005Z   22156.91667824  .00040898  00000-0  25737-2 0  9999,2 51127  53.2198 341.7303 0001809  59.1064 240.3954 15.08828815 22614,6917.915,95.438,541.031,538.528,0.0
51127.0,STARLINK-3370,PAYLOAD,2022-06-06 14:00:01,15.08852987,0.0001579,53.2201,338.7362,65.788,256.9229,-0.0014494999999999,-0.00023291,0.0,0 STARLINK-3370,1 51127U 22005Z   22157.58334491 -.00023291  00000-0 -14495-2 0  9993,2 51127  53.2201 338.7362 0001579  65.7880 256.9229 15.08852987 22719,6917.840999999999,95.437,540.798,538.613,0.0
51127.0,STARLINK-3370,PAYLOAD,2022-06-06 22:00:00,15.08817061,0.0001678,53.2198,337.2416,57.7635,276.5524,0.0027088,0.00043059,0.0,0 STARLINK-3370,1 51127U 22005Z   22157.91667824  .00043059  00000-0  27088-2 0  9993,2 51127  53.2198 337.2416 0001678  57.7635 276.5524 15.08817061  1309,6917.951,95.439,540.976,538.655,0.0
51127.0,STARLINK-3370,PAYLOAD,2022-06-07 12:25:19,15.08843001,0.0001513,53.2195,334.541,56.7589,303.3548,-8.6229e-06,-4.25e-06,0.0,0 STARLINK-3370,1 51127U 22005Z   22158.51758665 -.00000425  00000-0 -86229-5 0  9991,2 51127  53.2195 334.5410 0001513  56.7589 303.3548 15.08843001 22856,6917.871,95.437,540.783,538.69,0.0
51127.0,STARLINK-3370,PAYLOAD,2022-06-07 20:22:15,15.08843116,0.0001514,53.2195,333.0547,57.0509,303.0628,-5.9043e-06,-3.82e-06,0.0,0 STARLINK-3370,1 51127U 22005Z   22158.84878546 -.00000382  00000-0 -59043-5 0  9994,2 51127  53.2195 333.0547 0001514  57.0509 303.0628 15.08843116 21782,6917.871,95.437,540.783,538.688,0.0
51127.0,STARLINK-3370,PAYLOAD,2022-06-08 04:19:11,15.08839515,0.0001486999999999,53.2198,331.5685,59.3062,300.8077,-7.5306e-05,-1.486e-05,0.0,0 STARLINK-3370,1 51127U 22005Z   22159.17998975 -.00001486  00000-0 -75306-4 0  9995,2 51127  53.2198 331.5685 0001487  59.3062 300.8077 15.08839515 21836,6917.882,95.438,540.776,538.7180000000002,0.0
51127.0,STARLINK-3370,PAYLOAD,2022-06-08 18:37:39,15.08833948,0.0001599,53.2201,328.8917,57.5055,302.6091,-2.5766e-05,-6.98e-06,0.0,0 STARLINK-3370,1 51127U 22005Z   22159.77615140 -.00000698  00000-0 -25766-4 0  9990,2 51127  53.2201 328.8917 0001599  57.5055 302.6091 15.08833948 23049,6917.899,95.438,540.87,538.658,0.0
51127.0,STARLINK-3370,PAYLOAD,2022-06-08 20:13:02,15.08830887,0.0001546,53.22,328.5953,58.1725,301.9418,-4.5893e-05,-1.018e-05,0.0,0 STARLINK-3370,1 51127U 22005Z   22159.84239427 -.00001018  00000-0 -45893-4 0  9998,2 51127  53.2200 328.5953 0001546  58.1725 301.9418 15.08830887 21938,6917.908,95.438,540.8430000000002,538.7040000000002,0.0
51127.0,STARLINK-3370,PAYLOAD,2022-06-09 04:09:58,15.08829754,0.0001495,53.2199,327.1084,62.2744,297.84,-4.7679e-05,-1.046e-05,0.0,0 STARLINK-3370,1 51127U 22005Z   22160.17359665 -.00001046  00000-0 -47679-4 0  9998,2 51127  53.2199 327.1084 0001495  62.2744 297.8400 15.08829754 21985,6917.9119999999975,95.438,540.811,538.742,0.0
51127.0,STARLINK-3370,PAYLOAD,2022-06-09 13:42:17,15.08833569,0.0001533,53.2198,325.3243,62.951,297.1638,-4.4153e-05,-9.9e-06,0.0,0 STARLINK-3370,1 51127U 22005Z   22160.57103640 -.00000990  00000-0 -44153-4 0  9993,2 51127  53.2198 325.3243 0001533  62.9510 297.1638 15.08833569 22045,6917.9,95.438,540.826,538.705,0.0
51127.0,STARLINK-3370,PAYLOAD,2022-06-10 04:00:45,15.08836632,0.0001597,53.2203,322.6483,64.7473,295.3685,5.9242e-05,6.55e-06,0.0,0 STARLINK-3370,1 51127U 22005Z   22161.16719244  .00000655  00000-0  59242-4 0  9993,2 51127  53.2203 322.6483 0001597  64.7473 295.3685 15.08836632 23256,6917.891,95.438,540.86,538.651,0.0
